NORAD_CAT_ID,OBJECT_NAME,OBJECT_TYPE,EPOCH,MEAN_MOTION,ECCENTRICITY,INCLINATION,RA_OF_ASC_NODE,ARG_OF_PERICENTER,MEAN_ANOMALY,BSTAR,MEAN_MOTION_DOT,MEAN_MOTION_DDOT,TLE_LINE0,TLE_LINE1,TLE_LINE2,SEMIMAJOR_AXIS,PERIOD,APOGEE,PERIGEE,DECAYED
55770.0,STARLINK-5557,PAYLOAD,2023-05-07 22:25:36,15.69930178,0.0003186,70.0001,331.9543,248.4386,111.6471,2.1477e-05,2.371e-05,0.0,0 STARLINK-5557,1 55770U 23028AF  23127.93445190  .00002371  00000-0  21477-4 0  9997,2 55770  70.0001 331.9543 0003186 248.4386 111.6471 15.69930178 10893,6737.234,91.724,361.245,356.952,0.0
55770.0,STARLINK-5557,PAYLOAD,2023-05-08 19:50:08,15.69931398,0.0003555,69.9992,329.4451,268.6323,91.4466,2.3537e-05,2.619e-05,0.0,0 STARLINK-5557,1 55770U 23028AF  23128.82648450  .00002619  00000-0  23537-4 0  9994,2 55770  69.9992 329.4451 0003555 268.6323  91.4466 15.69931398 11035,6737.23,91.724,361.49,356.7,0.0
55770.0,STARLINK-5557,PAYLOAD,2023-05-08 21:21:53,15.69932377,0.0003646,69.9991,329.2666,268.4874,91.5904,1.3461e-05,1.407e-05,0.0,0 STARLINK-5557,1 55770U 23028AF  23128.89019984  .00001407  00000-0  13461-4 0  9994,2 55770  69.9991 329.2666 0003646 268.4874  91.5904 15.69932377 11058,6737.227,91.724,361.549,356.636,0.0
55770.0,STARLINK-5557,PAYLOAD,2023-05-09 14:11:09,15.6992627,0.0003795,69.9978,327.2927,269.5032,90.5729,-4.4183e-06,-7.44e-06,0.0,0 STARLINK-5557,1 55770U 23028AF  23129.59108674 -.00000744  00000-0 -44183-5 0  9998,2 55770  69.9978 327.2927 0003795 269.5032  90.5729 15.69926270 11165,6737.245,91.724,361.667,356.553,0.0
55770.0,STARLINK-5557,PAYLOAD,2023-05-09 23:21:40,15.69925381,0.0003848,69.9977,326.2217,268.8569,91.2186,-1.1164e-06,-3.47e-06,0.0,0 STARLINK-5557,1 55770U 23028AF  23129.97339021 -.00000347  00000-0 -11164-5 0  9994,2 55770  69.9977 326.2217 0003848 268.8569  91.2186 15.69925381 11225,6737.247,91.724,361.705,356.52,0.0
55770.0,STARLINK-5557,PAYLOAD,2023-05-10 19:14:26,15.69937719,0.0003649,69.9972,323.891,266.8831,93.1948,2.1127e-05,2.33e-05,0.0,0 STARLINK-5557,1 55770U 23028AF  23130.80169445  .00002330  00000-0  21127-4 0  9990,2 55770  69.9972 323.8910 0003649 266.8831  93.1948 15.69937719 11340,6737.212,91.723,361.536,356.619,0.0
55770.0,STARLINK-5557,PAYLOAD,2023-05-11 05:56:44,15.69905835,0.0002829,69.9984,322.6377,269.7387,90.3485,1.2822e-05,1.328e-05,0.0,0 STARLINK-5557,1 55770U 23028AF  23131.24773738  .00001328  00000-0  12822-4 0  9993,2 55770  69.9984 322.6377 0002829 269.7387  90.3485 15.69905835 11411,6737.303,91.725,361.074,357.262,0.0
55770.0,STARLINK-5557,PAYLOAD,2023-05-11 15:07:14,15.69912243,0.0003518,69.9979,321.5624,267.8339,92.2454,5.1768e-06,4.09e-06,0.0,0 STARLINK-5557,1 55770U 23028AF  23131.63003412  .00000409  00000-0  51768-5 0  9993,2 55770  69.9979 321.5624 0003518 267.8339  92.2454 15.69912243 11474,6737.285,91.725,361.52,356.78,0.0
55770.0,STARLINK-5557,PAYLOAD,2023-05-11 22:45:59,15.69926758,0.0003393,69.9971,320.6666,262.246,97.835,1.9308e-05,2.11e-05,0.0,0 STARLINK-5557,1 55770U 23028AF  23131.94860691  .00002110  00000-0  19308-4 0  9991,2 55770  69.9971 320.6666 0003393 262.2460  97.8350 15.69926758 11525,6737.244,91.724,361.394,356.823,0.0
55770.0,STARLINK-5557,PAYLOAD,2023-05-12 15:35:15,15.69935534,0.0003335,69.9967,318.6955,261.3211,98.7607,-1.4766e-07,-2.31e-06,0.0,0 STARLINK-5557,1 55770U 23028AF  23132.64948788 -.00000231  00000-0 -14766-6 0  9992,2 55770  69.9967 318.6955 0003335 261.3211  98.7607 15.69935534 11648,6737.218,91.724,361.33,356.837,0.0
55770.0,STARLINK-5557,PAYLOAD,2023-05-13 05:21:02,15.6991665,0.0003194,69.9975,317.0834,267.899,92.184,1.7216e-05,1.857e-05,0.0,0 STARLINK-5557,1 55770U 23028AF  23133.22294661  .00001857  00000-0  17216-4 0  9995,2 55770  69.9975 317.0834 0003194 267.8990  92.1840 15.69916650 11728,6737.272,91.725,361.289,356.986,0.0
55770.0,STARLINK-5557,PAYLOAD,2023-05-13 12:59:48,15.69911445,0.0003257,69.9992,316.1913,255.3267,104.7568,8.0806e-06,7.59e-06,0.0,0 STARLINK-5557,1 55770U 23028AF  23133.54153654  .00000759  00000-0  80806-5 0  9992,2 55770  69.9992 316.1913 0003257 255.3267 104.7568 15.69911445 11784,6737.287,91.725,361.347,356.958,0.0
55770.0,STARLINK-5557,PAYLOAD,2023-05-13 20:38:33,15.69924912,0.0003383,69.9977,315.2947,250.0503,110.0328,1.4215e-06,-4.2e-07,0.0,0 STARLINK-5557,1 55770U 23028AF  23133.86011291 -.00000042  00000-0  14215-5 0  9994,2 55770  69.9977 315.2947 0003383 250.0503 110.0328 15.69924912 11832,6737.249,91.724,361.393,356.835,0.0
55770.0,STARLINK-5557,PAYLOAD,2023-05-14 05:49:03,15.69930446,0.0003374,69.997,314.2182,268.163,91.9179,1.4442e-05,1.524e-05,0.0,0 STARLINK-5557,1 55770U 23028AF  23134.24240728  .00001524  00000-0  14442-4 0  9992,2 55770  69.9970 314.2182 0003374 268.1630  91.9179 15.69930446 11881,6737.233,91.724,361.371,356.825,0.0
55770.0,STARLINK-5557,PAYLOAD,2023-05-14 13:27:49,15.69933784,0.0003497,69.9972,313.3221,263.2745,96.8053,8.3778e-06,7.95e-06,0.0,0 STARLINK-5557,1 55770U 23028AF  23134.56098827  .00000795  00000-0  83778-5 0  9996,2 55770  69.9972 313.3221 0003497 263.2745  96.8053 15.69933784 11946,6737.223,91.724,361.444,356.732,0.0
55770.0,STARLINK-5557,PAYLOAD,2023-05-14 21:06:35,15.69932472,0.0003738,69.9973,312.4258,260.9001,99.1772,-1.3244e-06,-3.72e-06,0.0,0 STARLINK-5557,1 55770U 23028AF  23134.87957235 -.00000372  00000-0 -13244-5 0  9991,2 55770  69.9973 312.4258 0003738 260.9001  99.1772 15.69932472 11996,6737.227,91.724,361.611,356.574,0.0
55770.0,STARLINK-5557,PAYLOAD,2023-05-15 04:45:22,15.69909416,0.0003205,69.998,311.5307,263.0253,97.0579,8.0973e-07,-1.15e-06,0.0,0 STARLINK-5557,1 55770U 23028AF  23135.19817234 -.00000115  00000-0  80973-6 0  9999,2 55770  69.9980 311.5307 0003205 263.0253  97.0579 15.69909416 12031,6737.293,91.725,361.317,356.999,0.0
55770.0,STARLINK-5557,PAYLOAD,2023-05-15 12:24:07,15.699119,0.0003618,69.9972,310.6329,266.6887,93.3894,1.9919e-05,2.182e-05,0.0,0 STARLINK-5557,1 55770U 23028AF  23135.51675175  .00002182  00000-0  19919-4 0  9996,2 55770  69.9972 310.6329 0003618 266.6887  93.3894 15.69911900 12092,6737.286,91.725,361.589,356.714,0.0
55770.0,STARLINK-5557,PAYLOAD,2023-05-15 18:31:07,15.69923685,0.0003193,69.9983,309.9194,250.1059,109.9793,2.1207e-05,2.338e-05,0.0,0 STARLINK-5557,1 55770U 23028AF  23135.77161334  .00002338  00000-0  21207-4 0  9997,2 55770  69.9983 309.9194 0003193 250.1059 109.9793 15.69923685 12121,6737.252,91.724,361.269,356.966,0.0
55770.0,STARLINK-5557,PAYLOAD,2023-05-16 12:52:08,15.69926442,0.0003593,69.998,307.7692,262.3302,97.7486,1.0635e-05,1.066e-05,0.0,0 STARLINK-5557,1 55770U 23028AF  23136.53621164  .00001066  00000-0  10635-4 0  9994,2 55770  69.9980 307.7692 0003593 262.3302  97.7486 15.69926442 12258,6737.244,91.724,361.53,356.689,0.0
55770.0,STARLINK-5557,PAYLOAD,2023-05-16 17:27:23,15.69932281,0.0003614,69.9978,307.2295,256.8884,103.1908,1.1218e-05,1.137e-05,0.0,0 STARLINK-5557,1 55770U 23028AF  23136.72735706  .00001137  00000-0  11218-4 0  9990,2 55770  69.9978 307.2295 0003614 256.8884 103.1908 15.69932281 12288,6737.228,91.724,361.528,356.658,0.0
55770.0,STARLINK-5557,PAYLOAD,2023-05-17 17:55:26,15.6992703,0.0003286,69.9995,304.3654,260.3031,99.7793,2.2147e-05,2.451e-05,0.0,0 STARLINK-5557,1 55770U 23028AF  23137.74682940  .00002451  00000-0  22147-4 0  9997,2 55770  69.9995 304.3654 0003286 260.3031  99.7793 15.69927030 12438,6737.243,91.724,361.322,356.894,0.0
55770.0,STARLINK-5557,PAYLOAD,2023-05-17 20:58:56,15.69919607,0.0003197,69.9989,304.0055,262.7628,97.3204,9.9223e-06,9.8e-06,0.0,0 STARLINK-5557,1 55770U 23028AF  23137.87426892  .00000980  00000-0  99223-5 0  9998,2 55770  69.9989 304.0055 0003197 262.7628  97.3204 15.69919607 12467,6737.264,91.724,361.283,356.975,0.0
55770.0,STARLINK-5557,PAYLOAD,2023-05-18 12:16:27,15.69925905,0.0003494,69.9985,302.2137,265.4732,94.6064,-5.4018e-06,-8.62e-06,0.0,0 STARLINK-5557,1 55770U 23028AF  23138.51143459 -.00000862  00000-0 -54018-5 0  9999,2 55770  69.9985 302.2137 0003494 265.4732  94.6064 15.69925905 12563,6737.246,91.724,361.465,356.757,0.0
55770.0,STARLINK-5557,PAYLOAD,2023-05-19 17:19:45,15.69930304,0.0003633,69.9984,298.8108,265.9742,94.1039,9.4173e-06,9.2e-06,0.0,0 STARLINK-5557,1 55770U 23028AF  23139.72204863  .00000920  00000-0  94173-5 0  9999,2 55770  69.9984 298.8108 0003633 265.9742  94.1039 15.69930304 12747,6737.233,91.724,361.546,356.651,0.0
55770.0,STARLINK-5557,PAYLOAD,2023-05-19 20:23:15,15.69932649,0.0003596,69.9983,298.4523,266.3944,93.6841,1.1792e-05,1.206e-05,0.0,0 STARLINK-5557,1 55770U 23028AF  23139.84948011  .00001206  00000-0  11792-4 0  9995,2 55770  69.9983 298.4523 0003596 266.3944  93.6841 15.69932649 12772,6737.227,91.724,361.514,356.669,0.0
55770.0,STARLINK-5557,PAYLOAD,2023-05-20 17:47:45,15.69954105,0.0003818,70.0,295.9448,272.0198,88.056,5.898e-05,6.894e-05,0.0,0 STARLINK-5557,1 55770U 23028AF  23140.74150086  .00006894  00000-0  58980-4 0  9991,2 55770  70.0000 295.9448 0003818 272.0198  88.0560 15.69954105 12907,6737.165,91.722,361.603,356.458,0.0
55770.0,STARLINK-5557,PAYLOAD,2023-05-20 19:19:31,15.69941772,0.000339,70.0008,295.7649,276.1531,83.9278,3.8074e-05,4.371e-05,0.0,0 STARLINK-5557,1 55770U 23028AF  23140.80522489  .00004371  00000-0  38074-4 0  9998,2 55770  70.0008 295.7649 0003390 276.1531  83.9278 15.69941772 12925,6737.201,91.723,361.35,356.782,0.0
55770.0,STARLINK-5557,PAYLOAD,2023-05-21 09:05:19,15.69905839,0.0003636,69.9995,294.153,274.3992,85.6788,-2.7859e-05,-3.559e-05,0.0,0 STARLINK-5557,1 55770U 23028AF  23141.37869540 -.00003559  00000-0 -27859-4 0  9991,2 55770  69.9995 294.1530 0003636 274.3992  85.6788 15.69905839 13002,6737.303,91.725,361.618,356.719,0.0
55770.0,STARLINK-5557,PAYLOAD,2023-05-21 16:44:04,15.69923902,0.000364,69.9998,293.2565,270.7766,89.3013,9.5479e-06,9.35e-06,0.0,0 STARLINK-5557,1 55770U 23028AF  23141.69727169  .00000935  00000-0  95479-5 0  9993,2 55770  69.9998 293.2565 0003640 270.7766  89.3013 15.69923902 13055,6737.252,91.724,361.569,356.664,0.0
